{"type": "FeatureCollection", "features": [ {"type": "Feature", "properties": {"norad_id": 65077, "name": "CREW DRAGON 11", "group": "stations", "lat": 32.801002642910234, "lon": -16.913106923004626, "alt_km": 413.3608653237543, "timestamp": "2025-12-02T08:59:31.521541+00:00", "meta": {"OBJECT_NAME": "CREW DRAGON 11", "OBJECT_ID": "2025-166A", "EPOCH": "2025-12-01T13:49:44.445504", "MEAN_MOTION": 15.49226524, "ECCENTRICITY": 0.00036473, "INCLINATION": 51.6309, "RA_OF_ASC_NODE": 197.7449, "ARG_OF_PERICENTER": 190.9481, "MEAN_ANOMALY": 169.1428, "EPHEMERIS_TYPE": 0, "CLASSIFICATION_TYPE": "U", "NORAD_CAT_ID": 65077, "ELEMENT_SET_NO": 999, "REV_AT_EPOCH": 214, "BSTAR": 0.00016365535, "MEAN_MOTION_DOT": 8.648e-05, "MEAN_MOTION_DDOT": 0}, "tle": {"line1": "1 65077U 25166A   25335.57620886  .00008648  00000+0  16366-3 0  9995", "line2": "2 65077  51.6309 197.7449 0003647 190.9481 169.1428 15.49226524  2142"}}, "geometry": {"type": "Point", "coordinates": [-16.913106923004626, 32.801002642910234]}}, {"type": "Feature", "properties": {"norad_id": 65304, "name": "DRAGON CRS-33", "group": "stations", "lat": 32.80100216329433, "lon": -16.913106298127193, "alt_km": 413.36086537506344, "timestamp": "2025-12-02T08:59:31.521552+00:00", "meta": {"OBJECT_NAME": "DRAGON CRS-33", "OBJECT_ID": "2025-186A", "EPOCH": "2025-12-01T13:49:44.445504", "MEAN_MOTION": 15.49226524, "ECCENTRICITY": 0.00036473, "INCLINATION": 51.6309, "RA_OF_ASC_NODE": 197.7449, "ARG_OF_PERICENTER": 190.9481, "MEAN_ANOMALY": 169.1428, "EPHEMERIS_TYPE": 0, "CLASSIFICATION_TYPE": "U", "NORAD_CAT_ID": 65304, "ELEMENT_SET_NO": 999, "REV_AT_EPOCH": 11, "BSTAR": 0.00016365535, "MEAN_MOTION_DOT": 8.648e-05, "MEAN_MOTION_DDOT": 0}, "tle": {"line1": "1 65304U 25186A   25335.57620886  .00008648  00000+0  16366-3 0  9990", "line2": "2 65304  51.6309 197.7449 0003647 190.9481 169.1428 15.49226524   110"}}, "geometry": {"type": "Point", "coordinates": [-16.913106298127193, 32.80100216329433]}}, {"type": "Feature", "properties": {"norad_id": 65586, "name": "PROGRESS-MS 32", "group": "stations", "lat": 32.80100150927244, "lon": -16.913105446021362, "alt_km": 413.36086544502905, "timestamp": "2025-12-02T08:59:31.521567+00:00", "meta": {"OBJECT_NAME": "PROGRESS-MS 32", "OBJECT_ID": "2025-204A", "EPOCH": "2025-12-01T13:49:44.445504", "MEAN_MOTION": 15.49226524, "ECCENTRICITY": 0.00036473, "INCLINATION": 51.6309, "RA_OF_ASC_NODE": 197.7449, "ARG_OF_PERICENTER": 190.9481, "MEAN_ANOMALY": 169.1428, "EPHEMERIS_TYPE": 0, "CLASSIFICATION_TYPE": "U", "NORAD_CAT_ID": 65586, "ELEMENT_SET_NO": 999, "REV_AT_EPOCH": 27, "BSTAR": 0.00016365535, "MEAN_MOTION_DOT": 8.648e-05, "MEAN_MOTION_DDOT": 0}, "tle": {"line1": "1 65586U 25204A   25335.57620886  .00008648  00000+0  16366-3 0  9993", "line2": "2 65586  51.6309 197.7449 0003647 190.9481 169.1428 15.49226524   279"}}, "geometry": {"type": "Point", "coordinates": [-16.913105446021362, 32.80100150927244]}}, {"type": "Feature", "properties": {"norad_id": 65616, "name": "CYGNUS NG-23", "group": "stations", "lat": 32.801001073257304, "lon": -16.913104877950097, "alt_km": 413.36086549167703, "timestamp": "2025-12-02T08:59:31.521577+00:00", "meta": {"OBJECT_NAME": "CYGNUS NG-23", "OBJECT_ID": "2025-208A", "EPOCH": "2025-12-01T13:49:44.445504", "MEAN_MOTION": 15.49226524, "ECCENTRICITY": 0.00036473, "INCLINATION": 51.6309, "RA_OF_ASC_NODE": 197.7449, "ARG_OF_PERICENTER": 190.9481, "MEAN_ANOMALY": 169.1428, "EPHEMERIS_TYPE": 0, "CLASSIFICATION_TYPE": "U", "NORAD_CAT_ID": 65616, "ELEMENT_SET_NO": 999, "REV_AT_EPOCH": 22, "BSTAR": 0.00016365535, "MEAN_MOTION_DOT": 8.648e-05, "MEAN_MOTION_DDOT": 0}, "tle": {"line1": "1 65616U 25208A   25335.57620886  .00008648  00000+0  16366-3 0  9991", "line2": "2 65616  51.6309 197.7449 0003647 190.9481 169.1428 15.49226524   228"}}, "geometry": {"type": "Point", "coordinates": [-16.913104877950097, 32.801001073257304]}}, {"type": "Feature", "properties": {"norad_id": 65729, "name": "DRAGONFLY", "group": "stations", "lat": 47.528531715873896, "lon": -111.3658607899075, "alt_km": 361.78865609373133, "timestamp": "2025-12-02T08:59:31.521587+00:00", "meta": {"OBJECT_NAME": "DRAGONFLY", "OBJECT_ID": "1998-067XH", "EPOCH": "2025-12-01T23:30:55.050912", "MEAN_MOTION": 15.67818176, "ECCENTRICITY": 0.000649, "INCLINATION": 51.6258, "RA_OF_ASC_NODE": 190.6875, "ARG_OF_PERICENTER": 211.6531, "MEAN_ANOMALY": 148.4075, "EPHEMERIS_TYPE": 0, "CLASSIFICATION_TYPE": "U", "NORAD_CAT_ID": 65729, "ELEMENT_SET_NO": 999, "REV_AT_EPOCH": 1147, "BSTAR": 0.0011889, "MEAN_MOTION_DOT": 0.00135201, "MEAN_MOTION_DDOT": 0}, "tle": {"line1": "1 65729U 98067XH  25335.97980383  .00135201  00000+0  11889-2 0  9994", "line2": "2 65729  51.6258 190.6875 0006490 211.6531 148.4075 15.67818176 11474"}}, "geometry": {"type": "Point", "coordinates": [-111.3658607899075, 47.528531715873896]}}, {"type": "Feature", "properties": {"norad_id": 65730, "name": "1998-067XJ", "group": "stations", "lat": -50.02381173847688, "lon": 73.97209746508412, "alt_km": 222.81707433281372, "timestamp": "2025-12-02T08:59:31.521598+00:00", "meta": {"OBJECT_NAME": "1998-067XJ", "OBJECT_ID": "1998-067XJ", "EPOCH": "2025-12-01T20:03:18.916704", "MEAN_MOTION": 16.13832998, "ECCENTRICITY": 0.0010756, "INCLINATION": 51.6109, "RA_OF_ASC_NODE": 185.8826, "ARG_OF_PERICENTER": 242.801, "MEAN_ANOMALY": 117.191, "EPHEMERIS_TYPE": 0, "CLASSIFICATION_TYPE": "U", "NORAD_CAT_ID": 65730, "ELEMENT_SET_NO": 999, "REV_AT_EPOCH": 1152, "BSTAR": 0.0027371, "MEAN_MOTION_DOT": 0.02710772, "MEAN_MOTION_DDOT": 0.014802}, "tle": {"line1": "1 65730U 98067XJ  25335.83563561  .02710772  14802-1  27371-2 0  9990", "line2": "2 65730  51.6109 185.8826 0010756 242.8010 117.1910 16.13832998 11528"}}, "geometry": {"type": "Point", "coordinates": [73.97209746508412, -50.02381173847688]}}, {"type": "Feature", "properties": {"norad_id": 65731, "name": "1998-067XK", "group": "stations", "lat": -45.424166521967024, "lon": 136.19093175665893, "alt_km": 383.85986507955204, "timestamp": "2025-12-02T08:59:31.521608+00:00", "meta": {"OBJECT_NAME": "1998-067XK", "OBJECT_ID": "1998-067XK", "EPOCH": "2025-12-02T00:03:56.466432", "MEAN_MOTION": 15.6322737, "ECCENTRICITY": 0.0005955, "INCLINATION": 51.629, "RA_OF_ASC_NODE": 191.6009, "ARG_OF_PERICENTER": 184.5035, "MEAN_ANOMALY": 175.5906, "EPHEMERIS_TYPE": 0, "CLASSIFICATION_TYPE": "U", "NORAD_CAT_ID": 65731, "ELEMENT_SET_NO": 999, "REV_AT_EPOCH": 1146, "BSTAR": 0.00092099, "MEAN_MOTION_DOT": 0.00086466, "MEAN_MOTION_DDOT": 0}, "tle": {"line1": "1 65731U 98067XK  25336.00273688  .00086466  00000+0  92099-3 0  9996", "line2": "2 65731  51.6290 191.6009 0005955 184.5035 175.5906 15.63227370 11464"}}, "geometry": {"type": "Point", "coordinates": [136.19093175665893, -45.424166521967024]}}, {"type": "Feature", "properties": {"norad_id": 65732, "name": "RSP-03", "group": "stations", "lat": 5.3520752287724935, "lon": 4.959219941267972, "alt_km": 367.46433095339853, "timestamp": "2025-12-02T08:59:31.521618+00:00", "meta": {"OBJECT_NAME": "RSP-03", "OBJECT_ID": "1998-067XL", "EPOCH": "2025-12-02T00:35:43.430208", "MEAN_MOTION": 15.65401132, "ECCENTRICITY": 0.0006817, "INCLINATION": 51.6275, "RA_OF_ASC_NODE": 190.9915, "ARG_OF_PERICENTER": 187.4004, "MEAN_ANOMALY": 172.6892, "EPHEMERIS_TYPE": 0, "CLASSIFICATION_TYPE": "U", "NORAD_CAT_ID": 65732, "ELEMENT_SET_NO": 999, "REV_AT_EPOCH": 1148, "BSTAR": 0.0010736, "MEAN_MOTION_DOT": 0.00110336, "MEAN_MOTION_DDOT": 0}, "tle": {"line1": "1 65732U 98067XL  25336.02480822  .00110336  00000+0  10736-2 0  9990", "line2": "2 65732  51.6275 190.9915 0006817 187.4004 172.6892 15.65401132 11488"}}, "geometry": {"type": "Point", "coordinates": [4.959219941267972, 5.3520752287724935]}}, {"type": "Feature", "properties": {"norad_id": 65733, "name": "GHS-01", "group": "stations", "lat": -49.113450641215465, "lon": 74.52693743451445, "alt_km": 360.2873024814389, "timestamp": "2025-12-02T08:59:31.521629+00:00", "meta": {"OBJECT_NAME": "GHS-01", "OBJECT_ID": "1998-067XM", "EPOCH": "2025-12-01T21:13:00.819264", "MEAN_MOTION": 15.69713992, "ECCENTRICITY": 0.0007058, "INCLINATION": 51.6283, "RA_OF_ASC_NODE": 190.8036, "ARG_OF_PERICENTER": 210.2396, "MEAN_ANOMALY": 149.8194, "EPHEMERIS_TYPE": 0, "CLASSIFICATION_TYPE": "U", "NORAD_CAT_ID": 65733, "ELEMENT_SET_NO": 999, "REV_AT_EPOCH": 1147, "BSTAR": 0.0013342, "MEAN_MOTION_DOT": 0.00164761, "MEAN_MOTION_DDOT": 0}, "tle": {"line1": "1 65733U 98067XM  25335.88403726  .00164761  00000+0  13342-2 0  9999", "line2": "2 65733  51.6283 190.8036 0007058 210.2396 149.8194 15.69713992 11472"}}, "geometry": {"type": "Point", "coordinates": [74.52693743451445, -49.113450641215465]}}, {"type": "Feature", "properties": {"norad_id": 65941, "name": "YOTSUBA-KULOVER", "group": "stations", "lat": -51.01597999847624, "lon": 113.758483658224, "alt_km": 399.65252574402166, "timestamp": "2025-12-02T08:59:31.521639+00:00", "meta": {"OBJECT_NAME": "YOTSUBA-KULOVER", "OBJECT_ID": "1998-067XN", "EPOCH": "2025-12-01T14:52:06.534912", "MEAN_MOTION": 15.57565098, "ECCENTRICITY": 0.00022157, "INCLINATION": 51.6287, "RA_OF_ASC_NODE": 195.7889, "ARG_OF_PERICENTER": 159.9481, "MEAN_ANOMALY": 200.1599, "EPHEMERIS_TYPE": 0, "CLASSIFICATION_TYPE": "U", "NORAD_CAT_ID": 65941, "ELEMENT_SET_NO": 999, "REV_AT_EPOCH": 812, "BSTAR": 0.00079143347, "MEAN_MOTION_DOT": 0.00059437, "MEAN_MOTION_DDOT": 0}, "tle": {"line1": "1 65941U 98067XN  25335.61952008  .00059437  00000+0  79143-3 0  9998", "line2": "2 65941  51.6287 195.7889 0002215 159.9481 200.1599 15.57565098  8128"}}, "geometry": {"type": "Point", "coordinates": [113.758483658224, -51.01597999847624]}}]}